{
    "links": {
        "self": "http://www.neowsapp.com/rest/v1/neo/3788079?api_key=iIulBulltgU6a56xZRHN4H3l9WmuAYTsLGpBGhQ2"
    },
    "id": "3788079",
    "neo_reference_id": "3788079",
    "name": "(2017 UM7)",
    "designation": "2017 UM7",
    "nasa_jpl_url": "http://ssd.jpl.nasa.gov/sbdb.cgi?sstr=3788079",
    "absolute_magnitude_h": 24.6,
    "estimated_diameter": {
        "kilometers": {
            "estimated_diameter_min": 0.0319561887,
            "estimated_diameter_max": 0.0714562102
        },
        "meters": {
            "estimated_diameter_min": 31.9561886721,
            "estimated_diameter_max": 71.4562101727
        },
        "miles": {
            "estimated_diameter_min": 0.0198566489,
            "estimated_diameter_max": 0.0444008168
        },
        "feet": {
            "estimated_diameter_min": 104.8431420431,
            "estimated_diameter_max": 234.436392583
        }
    },
    "is_potentially_hazardous_asteroid": false,
    "close_approach_data": [
        {
            "close_approach_date": "2014-10-23",
            "close_approach_date_full": "2014-Oct-23 15:39",
            "epoch_date_close_approach": 1414078740000,
            "relative_velocity": {
                "kilometers_per_second": "18.6914157656",
                "kilometers_per_hour": "67289.0967562435",
                "miles_per_hour": "41810.8279261225"
            },
            "miss_distance": {
                "astronomical": "0.1459156691",
                "lunar": "56.7611952799",
                "kilometers": "21828673.296984817",
                "miles": "13563708.6292197946"
            },
            "orbiting_body": "Earth"
        },
        {
            "close_approach_date": "2017-10-26",
            "close_approach_date_full": "2017-Oct-26 10:05",
            "epoch_date_close_approach": 1509012300000,
            "relative_velocity": {
                "kilometers_per_second": "18.8547990444",
                "kilometers_per_hour": "67877.2765598044",
                "miles_per_hour": "42176.2999823962"
            },
            "miss_distance": {
                "astronomical": "0.0871611019",
                "lunar": "33.9056686391",
                "kilometers": "13039115.191092953",
                "miles": "8102130.4789626314"
            },
            "orbiting_body": "Earth"
        },
        {
            "close_approach_date": "2020-10-29",
            "close_approach_date_full": "2020-Oct-29 08:31",
            "epoch_date_close_approach": 1603960260000,
            "relative_velocity": {
                "kilometers_per_second": "19.6134312751",
                "kilometers_per_hour": "70608.3525904374",
                "miles_per_hour": "43873.2844193193"
            },
            "miss_distance": {
                "astronomical": "0.1643160165",
                "lunar": "63.9189304185",
                "kilometers": "24581326.075284855",
                "miles": "15274127.752466799"
            },
            "orbiting_body": "Earth"
        }
    ],
    "orbital_data": {
        "orbit_id": "1",
        "orbit_determination_date": "2017-10-28 19:31:07",
        "first_observation_date": "2017-10-22",
        "last_observation_date": "2017-10-28",
        "data_arc_in_days": 6,
        "observations_used": 32,
        "orbit_uncertainty": "8",
        "minimum_orbit_intersection": ".0864656",
        "jupiter_tisserand_invariant": "4.756",
        "epoch_osculation": "2458050.5",
        "eccentricity": ".1871167435708283",
        "semi_major_axis": "1.316501479223527",
        "inclination": "35.61081218312499",
        "ascending_node_longitude": "33.52807775519362",
        "orbital_period": "551.7348972857527",
        "perihelion_distance": "1.070162009525042",
        "perihelion_argument": "339.4810932482791",
        "aphelion_distance": "1.562840948922012",
        "perihelion_time": "2458033.017536431303",
        "mean_anomaly": "11.40708502524051",
        "mean_motion": ".6524872756300386",
        "equinox": "J2000",
        "orbit_class": {
            "orbit_class_type": "AMO",
            "orbit_class_description": "Near-Earth asteroid orbits similar to that of 1221 Amor",
            "orbit_class_range": "1.017 AU < q (perihelion) < 1.3 AU"
        }
    },
    "is_sentry_object": false
}